OBJECT_NAME,OBJECT_ID,EPOCH,MEAN_MOTION,ECCENTRICITY,INCLINATION,RA_OF_ASC_NODE,ARG_OF_PERICENTER,MEAN_ANOMALY,EPHEMERIS_TYPE,CLASSIFICATION_TYPE,NORAD_CAT_ID,ELEMENT_SET_NO,REV_AT_EPOCH,BSTAR,MEAN_MOTION_DOT,MEAN_MOTION_DDOT
KUZGTU 1 (RS47S),2023-091AV,2026-06-08T19:00:51.205248,15.29669516,.0012314,97.5067,224.1880,123.8656,236.3757,0,U,57217,999,16309,.46729E-3,.13395E-3,0
MESAT1,2024-125G,2026-06-08T20:18:25.816032,15.62304010,.0008839,97.2316,17.1436,236.9397,123.1013,0,U,60209,999,10826,.60006E-3,.5318E-3,0
OOV-CUBE (TUBSAT-30),2024-128F,2026-06-08T19:18:32.916096,15.02739260,.0045688,61.9950,254.8019,131.8693,228.6311,0,U,60240,999,10485,.20896E-3,.2654E-4,0
COLIBRI-S (RS67S),2024-199M,2026-06-08T18:50:47.927616,15.47378085,.0006574,97.3007,33.5646,318.7610,41.3142,0,U,61746,999,13611,.45339E-3,.23152E-3,0
HORS 3 (RS81S),2024-199U,2026-06-08T20:25:18.045120,15.54397050,.0004251,97.2990,35.5289,327.4905,32.6086,0,U,61753,999,13626,.49738E-3,.32615E-3,0
HORS 4 (RS82S),2024-199V,2026-06-08T20:04:00.697152,15.58902524,.0003199,97.2939,36.6623,315.4979,44.6020,0,U,61754,999,13634,.60282E-3,.46805E-3,0
ARCTICSAT 1 (RS74S),2024-199AD,2026-06-08T12:49:01.524288,16.08763925,.000814,97.2853,43.1177,201.8763,158.2174,0,U,61762,999,13673,.11763E-2,.1003063E-1,.58354E-3
SIT-2086,2024-199AF,2026-06-08T19:39:23.194080,15.52508951,.0004495,97.2948,36.0021,298.6615,61.4185,0,U,61764,999,13313,.59481E-3,.36469E-3,0
HYPERVIEW 1G (RS66S),2024-199AP,2026-06-08T13:08:22.366176,15.73537611,.0001993,97.2891,38.8443,299.0246,61.0818,0,U,61772,999,13331,-.20844E-4,-.3022E-4,0
ALTAIR (RS65S),2024-199AW,2026-06-08T20:14:39.895584,15.36861727,.0011937,97.3043,29.2499,344.3498,15.7376,0,U,61779,999,13583,.31032E-3,.1113E-3,0
ASRTU-1 (AO-123),2024-199AY,2026-06-08T19:46:49.537344,15.35555817,.0013171,97.3015,28.5706,346.4374,13.6514,0,U,61781,999,13264,.218E-3,.7474E-4,0
SAMSAT-IONOSPHERE (RS75S),2024-199BB,2026-06-08T20:01:36.752160,15.56899773,.0006278,97.2961,35.5292,320.2003,39.8791,0,U,61784,999,13626,.61918E-3,.44626E-3,0
RTU MIREA 1 (RS51S),2024-199BC,2026-06-08T19:30:25.044768,15.60173860,.0005647,97.2950,36.2970,314.1026,45.9766,0,U,61785,999,13316,.68838E-3,.5619E-3,0
TEVEL2-4,2025-052D,2026-06-07T15:52:08.883552,15.34277122,.00043543,97.3922,55.0407,120.1889,239.9786,0,U,63213,999,6865,.6171933E-3,.20438E-3,0
TEVEL2-5,2025-052E,2026-06-08T11:07:15.199104,15.34134140,.0004394,97.3910,55.7922,121.6229,238.5443,0,U,63214,999,6877,.4984E-3,.16406E-3,0
TEVEL2-6,2025-052F,2026-06-08T05:09:00.372960,15.34088018,.0004415,97.3912,55.5275,121.5489,238.6185,0,U,63215,999,6873,.47787E-3,.15702E-3,0
TEVEL2-1,2025-052H,2026-06-08T05:46:22.009728,15.33568729,.0004189,97.3889,55.1881,130.0273,230.1338,0,U,63217,999,6872,.47132E-3,.15233E-3,0
TEVEL2-3,2025-052J,2026-06-08T05:39:06.501024,15.33621807,.0004279,97.3889,55.2041,131.4338,228.7272,0,U,63218,999,6872,.46859E-3,.1517E-3,0
TEVEL2-2,2025-052K,2026-06-08T16:44:35.826432,15.33595395,.000423,97.3887,55.6477,131.0442,229.1167,0,U,63219,999,6879,.56087E-3,.18164E-3,0
TEVEL2-9,2025-052AD,2026-06-08T04:57:50.158656,15.31621079,.0006909,97.3948,54.5513,156.1696,203.9867,0,U,63237,999,6865,.45172E-3,.13734E-3,0
TEVEL2-7,2025-052AE,2026-06-08T05:54:17.410176,15.31335451,.0007005,97.3948,54.5102,156.9865,203.1691,0,U,63238,999,6865,.45614E-3,.13747E-3,0
TEVEL2-8,2025-052AF,2026-06-08T10:48:19.844352,15.31323830,.0007062,97.3950,54.6910,156.6692,203.4871,0,U,63239,999,6868,.46163E-3,.13909E-3,0
INNOSAT 16 (RS92S7),2025-155C,2026-06-08T19:15:16.324992,15.25368859,.0009537,97.4558,126.9574,205.6805,154.3961,0,U,64878,999,7939,.2225E-3,.5547E-4,0
GEOSCAN 6 (RS92S6),2025-155D,2026-06-08T19:27:13.580640,15.29995172,.000721,97.4550,128.3310,190.9832,169.1252,0,U,64879,999,7948,.34451E-3,.9936E-4,0
GEOSCAN 1 (RS92S1),2025-155E,2026-06-08T19:35:23.535168,15.30578109,.0007144,97.4547,128.4775,190.6761,169.4330,0,U,64880,999,7949,.35481E-3,.10422E-3,0
239ALFEROV (RS61S),2025-155F,2026-06-08T19:08:41.883072,15.32717528,.0006817,97.4549,128.9925,187.1151,172.9995,0,U,64881,999,7952,.47273E-3,.14879E-3,0
GEOSCAN 2 (RS92S2),2025-155Q,2026-06-08T19:28:25.951872,15.30849705,.0007024,97.4546,128.6218,175.8393,184.2908,0,U,64890,999,7950,.35116E-3,.10402E-3,0
GEOSCAN 5 (RS92S5),2025-155R,2026-06-08T18:55:24.018816,15.33035935,.0005505,97.4541,129.1175,190.0656,170.0477,0,U,64891,999,7953,.4667E-3,.14833E-3,0
GEOSCAN 4 (RS92S4),2025-155S,2026-06-08T18:33:49.910112,15.33184603,.0005552,97.4545,129.1484,190.6329,169.4797,0,U,64892,999,7953,.44988E-3,.14362E-3,0
