KUZGTU 1 (RS47S)        
1 57217U 23091AV  26159.79225932  .00013395  00000+0  46729-3 0  9990
2 57217  97.5067 224.1880 0012314 123.8656 236.3757 15.29669516163097
MESAT1                  
1 60209U 24125G   26159.84613213  .00053180  00000+0  60006-3 0  9993
2 60209  97.2316  17.1436 0008839 236.9397 123.1013 15.62304010108266
OOV-CUBE (TUBSAT-30)    
1 60240U 24128F   26159.80454764  .00002654  00000+0  20896-3 0  9994
2 60240  61.9950 254.8019 0045688 131.8693 228.6311 15.02739260104851
COLIBRI-S (RS67S)       
1 61746U 24199M   26159.78527694  .00023152  00000+0  45339-3 0  9999
2 61746  97.3007  33.5646 0006574 318.7610  41.3142 15.47378085136112
HORS 3 (RS81S)          
1 61753U 24199U   26159.85090330  .00032615  00000+0  49738-3 0  9998
2 61753  97.2990  35.5289 0004251 327.4905  32.6086 15.54397050136266
HORS 4 (RS82S)          
1 61754U 24199V   26159.83611918  .00046805  00000+0  60282-3 0  9991
2 61754  97.2939  36.6623 0003199 315.4979  44.6020 15.58902524136344
ARCTICSAT 1 (RS74S)     
1 61762U 24199AD  26159.53404542  .01003063  58354-3  11763-2 0  9998
2 61762  97.2853  43.1177 0008139 201.8763 158.2174 16.08763925136734
SIT-2086                
1 61764U 24199AF  26159.81901845  .00036469  00000+0  59481-3 0  9995
2 61764  97.2948  36.0021 0004495 298.6615  61.4185 15.52508951133133
HYPERVIEW 1G (RS66S)    
1 61772U 24199AP  26159.54748109 -.00003022  00000+0 -20844-4 0  9999
2 61772  97.2891  38.8443 0001993 299.0246  61.0818 15.73537611133319
ALTAIR (RS65S)          
1 61779U 24199AW  26159.84351731  .00011130  00000+0  31032-3 0  9997
2 61779  97.3043  29.2499 0011937 344.3498  15.7376 15.36861727135834
ASRTU-1 (AO-123)        
1 61781U 24199AY  26159.82418446  .00007474  00000+0  21800-3 0  9993
2 61781  97.3015  28.5706 0013171 346.4374  13.6514 15.35555817132643
SAMSAT-IONOSPHERE (RS7*)
1 61784U 24199BB  26159.83445315  .00044626  00000+0  61918-3 0  9996
2 61784  97.2961  35.5292 0006278 320.2003  39.8791 15.56899773136266
RTU MIREA 1 (RS51S)     
1 61785U 24199BC  26159.81278987  .00056190  00000+0  68838-3 0  9991
2 61785  97.2950  36.2970 0005647 314.1026  45.9766 15.60173860133165
TEVEL2-4                
1 63213U 25052D   26158.66121393  .00020438  00000+0  61719-3 0  9995
2 63213  97.3922  55.0407 0004354 120.1889 239.9786 15.34277122 68658
TEVEL2-5                
1 63214U 25052E   26159.46337037  .00016406  00000+0  49840-3 0  9990
2 63214  97.3910  55.7922 0004393 121.6229 238.5443 15.34134140 68772
TEVEL2-6                
1 63215U 25052F   26159.21458765  .00015702  00000+0  47787-3 0  9992
2 63215  97.3912  55.5275 0004415 121.5489 238.6185 15.34088018 68738
TEVEL2-1                
1 63217U 25052H   26159.24053252  .00015233  00000+0  47132-3 0  9992
2 63217  97.3889  55.1881 0004189 130.0273 230.1338 15.33568729 68723
TEVEL2-3                
1 63218U 25052J   26159.23549191  .00015170  00000+0  46859-3 0  9999
2 63218  97.3889  55.2041 0004279 131.4338 228.7272 15.33621807 68727
TEVEL2-2                
1 63219U 25052K   26159.69763688  .00018164  00000+0  56087-3 0  9999
2 63219  97.3887  55.6477 0004230 131.0442 229.1167 15.33595395 68799
TEVEL2-9                
1 63237U 25052AD  26159.20683054  .00013734  00000+0  45172-3 0  9995
2 63237  97.3948  54.5513 0006909 156.1696 203.9867 15.31621079 68659
TEVEL2-7                
1 63238U 25052AE  26159.24603484  .00013747  00000+0  45614-3 0  9994
2 63238  97.3948  54.5102 0007004 156.9865 203.1691 15.31335451 68650
TEVEL2-8                
1 63239U 25052AF  26159.45022968  .00013909  00000+0  46163-3 0  9990
2 63239  97.3950  54.6910 0007062 156.6692 203.4871 15.31323830 68685
INNOSAT 16 (RS92S7)     
1 64878U 25155C   26159.80227228  .00005547  00000+0  22250-3 0  9999
2 64878  97.4558 126.9574 0009537 205.6805 154.3961 15.25368859 79396
GEOSCAN 6 (RS92S6)      
1 64879U 25155D   26159.81057385  .00009936  00000+0  34451-3 0  9998
2 64879  97.4550 128.3310 0007210 190.9832 169.1252 15.29995172 79480
GEOSCAN 1 (RS92S1)      
1 64880U 25155E   26159.81624462  .00010422  00000+0  35481-3 0  9992
2 64880  97.4547 128.4775 0007144 190.6761 169.4330 15.30578109 79498
239ALFEROV (RS61S)      
1 64881U 25155F   26159.79770698  .00014879  00000+0  47273-3 0  9995
2 64881  97.4549 128.9925 0006817 187.1151 172.9995 15.32717528 79525
GEOSCAN 2 (RS92S2)      
1 64890U 25155Q   26159.81141148  .00010402  00000+0  35116-3 0  9991
2 64890  97.4546 128.6218 0007024 175.8393 184.2908 15.30849705 79506
GEOSCAN 5 (RS92S5)      
1 64891U 25155R   26159.78847244  .00014833  00000+0  46670-3 0  9997
2 64891  97.4541 129.1175 0005505 190.0656 170.0477 15.33035935 79535
GEOSCAN 4 (RS92S4)      
1 64892U 25155S   26159.77349433  .00014362  00000+0  44988-3 0  9991
2 64892  97.4545 129.1484 0005552 190.6329 169.4797 15.33184603 79532
